[{"OBJECT_NAME":"OBJECT A","OBJECT_ID":"2025-013A","EPOCH":"2026-03-09T23:29:31.895232","MEAN_MOTION":15.29260221,"ECCENTRICITY":0.0010321,"INCLINATION":97.6364,"RA_OF_ASC_NODE":244.5149,"ARG_OF_PERICENTER":282.3775,"MEAN_ANOMALY":77.6309,"EPHEMERIS_TYPE":0,"CLASSIFICATION_TYPE":"U","NORAD_CAT_ID":62729,"ELEMENT_SET_NO":999,"REV_AT_EPOCH":6276,"BSTAR":0.0013206527,"MEAN_MOTION_DOT":0.00037616,"MEAN_MOTION_DDOT":0},{"OBJECT_NAME":"STARLINK-33665","OBJECT_ID":"2025-053S","EPOCH":"2026-03-09T12:31:16.520736","MEAN_MOTION":15.2761666,"ECCENTRICITY":0.00016639,"INCLINATION":43.0015,"RA_OF_ASC_NODE":242.2115,"ARG_OF_PERICENTER":260.9739,"MEAN_ANOMALY":99.0924,"EPHEMERIS_TYPE":0,"CLASSIFICATION_TYPE":"U","NORAD_CAT_ID":63281,"ELEMENT_SET_NO":999,"REV_AT_EPOCH":5617,"BSTAR":0.00075891861,"MEAN_MOTION_DOT":0.00020704,"MEAN_MOTION_DDOT":0}]
